[{"OBJECT_NAME":"STARLINK-30327","OBJECT_ID":"2023-129K","EPOCH":"2026-03-09T12:25:28.993152","MEAN_MOTION":15.26626807,"ECCENTRICITY":0.00230309,"INCLINATION":42.9974,"RA_OF_ASC_NODE":85.9834,"ARG_OF_PERICENTER":70.832,"MEAN_ANOMALY":289.5022,"EPHEMERIS_TYPE":0,"CLASSIFICATION_TYPE":"U","NORAD_CAT_ID":57707,"ELEMENT_SET_NO":999,"REV_AT_EPOCH":14090,"BSTAR":0.00029313824,"MEAN_MOTION_DOT":7.635e-5,"MEAN_MOTION_DDOT":0},{"OBJECT_NAME":"STARLINK-35258","OBJECT_ID":"2025-223H","EPOCH":"2026-03-09T21:20:01.755744","MEAN_MOTION":15.30184505,"ECCENTRICITY":0.00017066,"INCLINATION":53.1588,"RA_OF_ASC_NODE":293.4324,"ARG_OF_PERICENTER":41.0771,"MEAN_ANOMALY":319.0358,"EPHEMERIS_TYPE":0,"CLASSIFICATION_TYPE":"U","NORAD_CAT_ID":65861,"ELEMENT_SET_NO":999,"REV_AT_EPOCH":2423,"BSTAR":0.00069376487,"MEAN_MOTION_DOT":0.00020234,"MEAN_MOTION_DDOT":0}]
